{
  "norad_id": 66344,
  "name": "STARLINK-35511",
  "history": [
    {
      "epoch": "2026-03-28T17:58:28.923168Z",
      "apogee_km": 484.1109305042455,
      "perigee_km": 481.9400586909551,
      "latitude_deg": -2.768530842355073e-05,
      "longitude_deg": 8.706226676030262,
      "height_km": 482.8262416635701,
      "semi_major_axis_km": 6861.1624945976,
      "eccentricity": 0.0001582,
      "inclination_deg": 43.0026,
      "raan_deg": 104.4917,
      "arg_perigee_deg": 268.7537,
      "mean_anomaly_deg": 91.3133,
      "mean_motion_rev_day": 15.27587882
    },
    {
      "epoch": "2026-03-29T01:49:15.937824Z",
      "apogee_km": 483.5183226772242,
      "perigee_km": 482.4918958176813,
      "latitude_deg": -1.965516482359912e-06,
      "longitude_deg": -111.1583802659349,
      "height_km": 482.666119997274,
      "semi_major_axis_km": 6861.142109247453,
      "eccentricity": 7.48e-05,
      "inclination_deg": 42.9991,
      "raan_deg": 102.6452,
      "arg_perigee_deg": 282.9509,
      "mean_anomaly_deg": 77.1259,
      "mean_motion_rev_day": 15.2759469
    },
    {
      "epoch": "2026-03-30T01:21:36.861696Z",
      "apogee_km": 483.3046968216413,
      "perigee_km": 482.6646913900149,
      "latitude_deg": 1.1197513111492697e-05,
      "longitude_deg": -110.74936684709267,
      "height_km": 482.7830928897534,
      "semi_major_axis_km": 6861.121694105827,
      "eccentricity": 4.664e-05,
      "inclination_deg": 42.9958,
      "raan_deg": 97.1081,
      "arg_perigee_deg": 94.2931,
      "mean_anomaly_deg": 265.7974,
      "mean_motion_rev_day": 15.27601508
    },
    {
      "epoch": "2026-03-30T09:12:23.600736Z",
      "apogee_km": 483.84928484781994,
      "perigee_km": 482.2172868836242,
      "latitude_deg": -1.35527643769715e-05,
      "longitude_deg": 129.38602436982958,
      "height_km": 482.90170285117574,
      "semi_major_axis_km": 6861.170285865722,
      "eccentricity": 0.00011893,
      "inclination_deg": 42.9999,
      "raan_deg": 95.2605,
      "arg_perigee_deg": 263.5319,
      "mean_anomaly_deg": 96.5397,
      "mean_motion_rev_day": 15.2758528
    },
    {
      "epoch": "2026-03-30T17:03:10.762272Z",
      "apogee_km": 483.62411188914393,
      "perigee_km": 482.4511254763329,
      "latitude_deg": 1.4115311643149915e-05,
      "longitude_deg": 9.52000626838858,
      "height_km": 482.78661163778185,
      "semi_major_axis_km": 6861.174618682738,
      "eccentricity": 8.548e-05,
      "inclination_deg": 43.003,
      "raan_deg": 93.4132,
      "arg_perigee_deg": 272.6946,
      "mean_anomaly_deg": 87.3808,
      "mean_motion_rev_day": 15.27583833
    }
  ]
}